*******************************************************************************
JPL/HORIZONS               1864 Daedalus (1971 FA)         2023-Sep-04 11:14:36
Rec #:    1864 (+COV) Soln.date: 2023-Aug-22_12:13:03   # obs: 4530 (1971-2023)
 
IAU76/J2000 helio. ecliptic osc. elements (au, days, deg., period=Julian yrs):
 
  EPOCH=  2457451.5 ! 2016-Mar-04.00 (TDB)         Residual RMS= .28396
   EC= .6147292312565958   QR= .5627719706331443   TP= 2457314.2043172494
   OM= 6.642300007706333   W=  325.6252521741804   IN= 22.21243965738
   A= 1.460718061919612    MA= 76.64985822724368   ADIST= 2.358664153206079
   PER= 1.76546            N= .558283092           ANGMOM= .016398251
   DAN= .60285             DDN= 1.84466            L= 334.2961585
   B= -12.3242353          MOID= .268765           TP= 2015-Oct-18.7043172494
 
Asteroid physical parameters (km, seconds, rotational period in hours):
   GM= n.a.                RAD= 1.85               ROTPER= 8.572
   H= 14.88                G= .150                 B-V= .830
                           ALBEDO= .273            STYP= Sr

ASTEROID comments: 
1: soln ref.= JPL#637, OCC=0           radar( 1 delay, 0 Dop.)
2: source=ORB
*******************************************************************************


*******************************************************************************
Ephemeris / API_USER Mon Sep  4 11:14:36 2023 Pasadena, USA      / Horizons
*******************************************************************************
Target body name: 1864 Daedalus (1971 FA)         {source: JPL#637}
Center body name: Solar System Barycenter (0)     {source: DE441}
Center-site name: BODY CENTER
*******************************************************************************
Start time      : A.D. 2023-Aug-12 00:00:00.0000 TDB
Stop  time      : A.D. 2023-Aug-13 00:00:00.0000 TDB
Step-size       : 2880 minutes
*******************************************************************************
Center geodetic : 0.0, 0.0, 0.0                   {E-lon(deg),Lat(deg),Alt(km)}
Center cylindric: 0.0, 0.0, 0.0                   {E-lon(deg),Dxy(km),Dz(km)}
Center radii    : (undefined)
Small perturbers: Yes                             {source: SB441-N16}
Output units    : KM-S
Calendar mode   : Mixed Julian/Gregorian
Output type     : GEOMETRIC cartesian states
Output format   : 2 (position and velocity)
Reference frame : Ecliptic of J2000.0
*******************************************************************************
Initial IAU76/J2000 heliocentric ecliptic osculating elements (au, days, deg.):
  EPOCH=  2457451.5 ! 2016-Mar-04.00 (TDB)         Residual RMS= .28396        
   EC= .6147292312565958   QR= .5627719706331443   TP= 2457314.2043172494      
   OM= 6.642300007706333   W=  325.6252521741804   IN= 22.21243965738          
  Equivalent ICRF heliocentric cartesian coordinates (au, au/d):
   X=-7.136725552203981E-01  Y= 1.108432884763830E+00  Z= 1.173199808563880E+00
  VX=-1.124440188904214E-02 VY= 1.379400987793173E-03 VZ= 2.106920837484670E-03
Asteroid physical parameters (km, seconds, rotational period in hours):        
   GM= n.a.                RAD= 1.85               ROTPER= 8.572               
   H= 14.88                G= .150                 B-V= .830                   
                           ALBEDO= .273            STYP= Sr                    
*******************************************************************************
JDTDB
   X     Y     Z
   VX    VY    VZ
*******************************************************************************
$$SOE
2460168.500000000 = A.D. 2023-Aug-12 00:00:00.0000 TDB 
 X =-2.803518825703545E+08 Y = 1.861411072238943E+08 Z = 8.878641151589984E+07
 VX=-9.458468498631877E+00 VY=-7.787384510883602E+00 VZ=-2.708567702623610E+00
$$EOE
*******************************************************************************
 
TIME

  Barycentric Dynamical Time ("TDB" or T_eph) output was requested. This
continuous coordinate time is equivalent to the relativistic proper time
of a clock at rest in a reference frame co-moving with the solar system
barycenter but outside the system's gravity well. It is the independent
variable in the solar system relativistic equations of motion.

  TDB runs at a uniform rate of one SI second per second and is independent
of irregularities in Earth's rotation.
 
CALENDAR SYSTEM

  Mixed calendar mode was active such that calendar dates after AD 1582-Oct-15
(if any) are in the modern Gregorian system. Dates prior to 1582-Oct-5 (if any)
are in the Julian calendar system, which is automatically extended for dates
prior to its adoption on 45-Jan-1 BC.  The Julian calendar is useful for
matching historical dates. The Gregorian calendar more accurately corresponds
to the Earth's orbital motion and seasons. A "Gregorian-only" calendar mode is
available if such physical events are the primary interest.

REFERENCE FRAME AND COORDINATES

  Ecliptic at the standard reference epoch

    Reference epoch: J2000.0
    X-Y plane: adopted Earth orbital plane at the reference epoch
               Note: IAU76 obliquity of 84381.448 arcseconds wrt ICRF X-Y plane
    X-axis   : ICRF
    Z-axis   : perpendicular to the X-Y plane in the directional (+ or -) sense
               of Earth's north pole at the reference epoch.

  Symbol meaning:

    JDTDB    Julian Day Number, Barycentric Dynamical Time
      X      X-component of position vector (km)
      Y      Y-component of position vector (km)
      Z      Z-component of position vector (km)
      VX     X-component of velocity vector (km/sec)                           
      VY     Y-component of velocity vector (km/sec)                           
      VZ     Z-component of velocity vector (km/sec)                           

ABERRATIONS AND CORRECTIONS

 Geometric state vectors have NO corrections or aberrations applied.

Computations by ...

    Solar System Dynamics Group, Horizons On-Line Ephemeris System
    4800 Oak Grove Drive, Jet Propulsion Laboratory
    Pasadena, CA  91109   USA

    General site: https://ssd.jpl.nasa.gov/
    Mailing list: https://ssd.jpl.nasa.gov/email_list.html
    System news : https://ssd.jpl.nasa.gov/horizons/news.html
    User Guide  : https://ssd.jpl.nasa.gov/horizons/manual.html
    Connect     : browser        https://ssd.jpl.nasa.gov/horizons/app.html#/x
                  API            https://ssd-api.jpl.nasa.gov/doc/horizons.html
                  command-line   telnet ssd.jpl.nasa.gov 6775
                  e-mail/batch   https://ssd.jpl.nasa.gov/ftp/ssd/hrzn_batch.txt
                  scripts        https://ssd.jpl.nasa.gov/ftp/ssd/SCRIPTS
    Author      : Jon.D.Giorgini@jpl.nasa.gov
*******************************************************************************
